[{"OBJECT_NAME":"YAOGAN-30 11B","OBJECT_ID":"2021-065C","EPOCH":"2026-03-09T16:31:48.488160","MEAN_MOTION":15.02134262,"ECCENTRICITY":9.601e-5,"INCLINATION":34.9931,"RA_OF_ASC_NODE":159.0081,"ARG_OF_PERICENTER":264.9738,"MEAN_ANOMALY":95.0861,"EPHEMERIS_TYPE":0,"CLASSIFICATION_TYPE":"U","NORAD_CAT_ID":49028,"ELEMENT_SET_NO":999,"REV_AT_EPOCH":25365,"BSTAR":0.00032720228,"MEAN_MOTION_DOT":4.364e-5,"MEAN_MOTION_DDOT":0},{"OBJECT_NAME":"ICEYE-X37","OBJECT_ID":"2024-043E","EPOCH":"2026-03-09T21:28:27.980256","MEAN_MOTION":15.05207146,"ECCENTRICITY":0.00148076,"INCLINATION":97.8149,"RA_OF_ASC_NODE":204.4924,"ARG_OF_PERICENTER":351.2295,"MEAN_ANOMALY":8.867,"EPHEMERIS_TYPE":0,"CLASSIFICATION_TYPE":"U","NORAD_CAT_ID":59102,"ELEMENT_SET_NO":999,"REV_AT_EPOCH":11014,"BSTAR":0.00044484532,"MEAN_MOTION_DOT":6.299e-5,"MEAN_MOTION_DDOT":0}]
